[9ptempel]
absolute_magnitude             = 5.5
albedo                         = 0.1
coord_func                     = comet_orbit
dust_brightnessfactor          = 1.5
dust_lengthfactor              = 0.40000000000000002
dust_widthfactor               = 1.5
name                           = 9P/Tempel
orbit_ArgOfPericenter          = 179.4524
orbit_AscendingNode            = 68.6788
orbit_Eccentricity             = 0.50947
orbit_Epoch                    = 2459930.5
orbit_Inclination              = 10.4706
orbit_PericenterDistance       = 1.544754
orbit_TimeAtPericenter         = 2459643.5826
orbit_good                     = 349
radius                         = 5
slope_parameter                = 10
type                           = comet

[C_1995O1%28Hale-Bopp%29]
absolute_magnitude             = -2.0
albedo                         = 0.1
coord_func                     = comet_orbit
dust_brightnessfactor          = 1.0
dust_lengthfactor              = 0.3
dust_widthfactor               = 1.5
name                           = C/1995 O1 (Hale-Bopp)
orbit_ArgOfPericenter          = 130.58949
orbit_AscendingNode            = 282.47085
orbit_Eccentricity             = 0.99508172
orbit_Epoch                    = 2450465.000000
orbit_Inclination              = 89.43015
orbit_PericenterDistance       = 0.91413353
orbit_TimeAtPericenter         = 2450539.63730
orbit_good                     = 1000
radius                         = 5
slope_parameter                = 4.0
type                           = comet

[C_1996B2%28Hyakutake%29]
absolute_magnitude             = 5.0
albedo                         = 0.1
coord_func                     = comet_orbit
dust_brightnessfactor          = 0.5
dust_lengthfactor              = 0.4
dust_widthfactor               = 0.5
name                           = C/1996 B2 (Hyakutake)
orbit_ArgOfPericenter          = 130.17407
orbit_AscendingNode            = 188.04523
orbit_Eccentricity             = 0.99989902
orbit_Epoch                    = 2450161.000000
orbit_Inclination              = 124.92275
orbit_PericenterDistance       = 0.23022925
orbit_TimeAtPericenter         = 2450204.89407
orbit_good                     = 1000
radius                         = 5
slope_parameter                = 4.0
type                           = comet

[P_Halley_1982i_1986III]
absolute_magnitude             = 4.3
albedo                         = 0.1
color                          = 1.0, 1.0, 1.0
coord_func                     = comet_orbit
dust_brightnessfactor          = 1.5
dust_lengthfactor              = 0.4
dust_widthfactor               = 1.5
model                          = 1682q1halley_MLfix.obj
name                           = P/Halley (1982i=1986III)
orbit_ArgOfPericenter          = 111.84660
orbit_AscendingNode            = 58.14340
orbit_Eccentricity             = 0.96727700
orbit_Epoch                    = 2446480.500000
orbit_Inclination              = 162.23920
orbit_PericenterDistance       = 0.58710400
orbit_TimeAtPericenter         = 2446470.95890
orbit_good                     = 4000
radius                         = 5
slope_parameter                = 4.9
tex_map                        = nomap.png
type                           = comet

[P_Halley_2061]
absolute_magnitude             = 4.3
albedo                         = 0.1
coord_func                     = comet_orbit
dust_brightnessfactor          = 1.5
dust_lengthfactor              = 0.4
dust_widthfactor               = 1.5
model                          = 1682q1halley_MLfix.obj
name                           = 1P/Halley (2061)
orbit_ArgOfPericenter          = 111.33248510452
orbit_AscendingNode            = 58.420080976568
orbit_Eccentricity             = 0.96714291
orbit_Epoch                    = 2473976.5244
orbit_Inclination              = 162.26269058
orbit_PericenterDistance       = 0.58597811
orbit_TimeAtPericenter         = 2473976.5244
orbit_good                     = 20000
radius                         = 5
real_orbit_Epoch               = 2449400.5
slope_parameter                = 4.9
type                           = comet

[TeslaRoadster]
absolute_magnitude             = 25.256
albedo                         = 1
color                          = 1.0,0.0,0.0
coord_func                     = comet_orbit
name                           = Tesla Roadster (Starman)
orbit_ArgOfPericenter          = 177.3364041029062
orbit_AscendingNode            = 317.3183428774018
orbit_Eccentricity             = 0.2576842367146164
orbit_Epoch                    = 2458167.500000000
orbit_Inclination              = 1.085063111224933
orbit_PericenterDistance       = 0.9860582813419811
orbit_TimeAtPericenter         = 2458153.5979641485
type                           = artificial

[c2011kp36%28spacewatch%29]
absolute_magnitude             = 4.5
albedo                         = 0.1
coord_func                     = comet_orbit
dust_brightnessfactor          = 1.5
dust_lengthfactor              = 0.40000000000000002
dust_widthfactor               = 1.5
name                           = C/2011 KP36 (Spacewatch)
orbit_ArgOfPericenter          = 180.58250000000001
orbit_AscendingNode            = 173.3999
orbit_Eccentricity             = 0.87291200000000002
orbit_Inclination              = 18.9863
orbit_PericenterDistance       = 4.8831749999999996
orbit_TimeAtPericenter         = 2457535.2741898149
orbit_good                     = 1000
orbit_visualization_period     = 86975.45896626302
radius                         = 5
slope_parameter                = 4
type                           = comet

[c2012f3%28panstarrs%29]
absolute_magnitude             = 6.5
albedo                         = 0.1
coord_func                     = comet_orbit
dust_brightnessfactor          = 1.5
dust_lengthfactor              = 0.40000000000000002
dust_widthfactor               = 1.5
name                           = C/2012 F3 (PANSTARRS)
orbit_ArgOfPericenter          = 104.0286
orbit_AscendingNode            = 164.61150000000001
orbit_Eccentricity             = 1.0027159999999999
orbit_Inclination              = 11.3545
orbit_PericenterDistance       = 3.456833
orbit_TimeAtPericenter         = 2457119.2994907405
orbit_good                     = 1000
radius                         = 5
slope_parameter                = 4
type                           = comet

[c2012k1%28panstarrs%29]
absolute_magnitude             = 5.6
albedo                         = 0.1
coord_func                     = comet_orbit
dust_brightnessfactor          = 1.5
dust_lengthfactor              = 0.40000000000000002
dust_widthfactor               = 1.5
name                           = C/2012 K1 (PANSTARRS)
orbit_ArgOfPericenter          = 203.1293
orbit_AscendingNode            = 317.75409999999999
orbit_Eccentricity             = 1.000472
orbit_Inclination              = 142.40559999999999
orbit_PericenterDistance       = 1.054289
orbit_TimeAtPericenter         = 2456897.3320949073
orbit_good                     = 1000
radius                         = 5
slope_parameter                = 3.2
type                           = comet

[c2012x1%28linear%29]
absolute_magnitude             = 4.8
albedo                         = 0.1
coord_func                     = comet_orbit
dust_brightnessfactor          = 1.5
dust_lengthfactor              = 0.40000000000000002
dust_widthfactor               = 1.5
name                           = C/2012 X1 (LINEAR)
orbit_ArgOfPericenter          = 132.11580000000001
orbit_AscendingNode            = 113.0822
orbit_Eccentricity             = 0.98999700000000002
orbit_Inclination              = 44.356699999999996
orbit_PericenterDistance       = 1.5968519999999999
orbit_TimeAtPericenter         = 2456710.3666898147
orbit_good                     = 368
orbit_visualization_period     = 726841.5049832416
radius                         = 5
slope_parameter                = 3.6
type                           = comet

